[{"OBJECT_NAME":"RADUGA-1 2","OBJECT_ID":"1990-116A","EPOCH":"2026-04-05T15:13:22.316448","MEAN_MOTION":1.00230427,"ECCENTRICITY":0.0003629,"INCLINATION":12.9422,"RA_OF_ASC_NODE":338.4427,"ARG_OF_PERICENTER":132.913,"MEAN_ANOMALY":43.4336,"EPHEMERIS_TYPE":0,"CLASSIFICATION_TYPE":"U","NORAD_CAT_ID":21038,"ELEMENT_SET_NO":999,"REV_AT_EPOCH":4661,"BSTAR":0,"MEAN_MOTION_DOT":-2.56e-6,"MEAN_MOTION_DDOT":0},{"OBJECT_NAME":"ITALSAT 1","OBJECT_ID":"1991-003A","EPOCH":"2026-04-05T02:11:31.680096","MEAN_MOTION":0.99963965,"ECCENTRICITY":0.00141358,"INCLINATION":14.5678,"RA_OF_ASC_NODE":352.0599,"ARG_OF_PERICENTER":46.6144,"MEAN_ANOMALY":127.2557,"EPHEMERIS_TYPE":0,"CLASSIFICATION_TYPE":"U","NORAD_CAT_ID":21055,"ELEMENT_SET_NO":999,"REV_AT_EPOCH":11635,"BSTAR":0,"MEAN_MOTION_DOT":-2.88e-6,"MEAN_MOTION_DDOT":0},{"OBJECT_NAME":"COSMOS 2133","OBJECT_ID":"1991-010A","EPOCH":"2026-04-05T14:28:47.002656","MEAN_MOTION":1.0027295,"ECCENTRICITY":0.0002881,"INCLINATION":13.2933,"RA_OF_ASC_NODE":343.2728,"ARG_OF_PERICENTER":216.6793,"MEAN_ANOMALY":291.7096,"EPHEMERIS_TYPE":0,"CLASSIFICATION_TYPE":"U","NORAD_CAT_ID":21111,"ELEMENT_SET_NO":999,"REV_AT_EPOCH":12871,"BSTAR":0,"MEAN_MOTION_DOT":-1.6e-6,"MEAN_MOTION_DDOT":0},{"OBJECT_NAME":"SL-12 R/B(2)","OBJECT_ID":"1991-010F","EPOCH":"2026-04-05T09:03:38.689632","MEAN_MOTION":1.00128225,"ECCENTRICITY":0.00168461,"INCLINATION":13.203,"RA_OF_ASC_NODE":342.8769,"ARG_OF_PERICENTER":233.0289,"MEAN_ANOMALY":316.622,"EPHEMERIS_TYPE":0,"CLASSIFICATION_TYPE":"U","NORAD_CAT_ID":21129,"ELEMENT_SET_NO":999,"REV_AT_EPOCH":12894,"BSTAR":0,"MEAN_MOTION_DOT":1.03e-6,"MEAN_MOTION_DDOT":0},{"OBJECT_NAME":"RADUGA 27","OBJECT_ID":"1991-014A","EPOCH":"2026-04-05T13:31:03.167904","MEAN_MOTION":1.00377736,"ECCENTRICITY":0.00016967,"INCLINATION":13.4086,"RA_OF_ASC_NODE":337.4061,"ARG_OF_PERICENTER":335.9994,"MEAN_ANOMALY":165.659,"EPHEMERIS_TYPE":0,"CLASSIFICATION_TYPE":"U","NORAD_CAT_ID":21132,"ELEMENT_SET_NO":999,"REV_AT_EPOCH":12858,"BSTAR":0,"MEAN_MOTION_DOT":-2.0e-6,"MEAN_MOTION_DDOT":0},{"OBJECT_NAME":"TDRS 5","OBJECT_ID":"1991-054B","EPOCH":"2026-04-05T10:25:38.525088","MEAN_MOTION":1.00279773,"ECCENTRICITY":0.0008517,"INCLINATION":14.0808,"RA_OF_ASC_NODE":354.3167,"ARG_OF_PERICENTER":279.2819,"MEAN_ANOMALY":269.0253,"EPHEMERIS_TYPE":0,"CLASSIFICATION_TYPE":"U","NORAD_CAT_ID":21639,"ELEMENT_SET_NO":999,"REV_AT_EPOCH":12698,"BSTAR":0,"MEAN_MOTION_DOT":8.6e-7,"MEAN_MOTION_DDOT":0},{"OBJECT_NAME":"IUS R/B(2)","OBJECT_ID":"1991-054D","EPOCH":"2026-04-05T02:09:39.359232","MEAN_MOTION":1.00368776,"ECCENTRICITY":0.00368169,"INCLINATION":13.8309,"RA_OF_ASC_NODE":333.5512,"ARG_OF_PERICENTER":345.7401,"MEAN_ANOMALY":200.3752,"EPHEMERIS_TYPE":0,"CLASSIFICATION_TYPE":"U","NORAD_CAT_ID":21641,"ELEMENT_SET_NO":999,"REV_AT_EPOCH":4663,"BSTAR":0,"MEAN_MOTION_DOT":-2.96e-6,"MEAN_MOTION_DDOT":0},{"OBJECT_NAME":"COSMOS 2155","OBJECT_ID":"1991-064A","EPOCH":"2026-04-05T07:23:38.894784","MEAN_MOTION":1.0017996,"ECCENTRICITY":0.0002506,"INCLINATION":13.1811,"RA_OF_ASC_NODE":339.8004,"ARG_OF_PERICENTER":267.6692,"MEAN_ANOMALY":271.6221,"EPHEMERIS_TYPE":0,"CLASSIFICATION_TYPE":"U","NORAD_CAT_ID":21702,"ELEMENT_SET_NO":999,"REV_AT_EPOCH":12660,"BSTAR":0,"MEAN_MOTION_DOT":1.01e-6,"MEAN_MOTION_DDOT":0},{"OBJECT_NAME":"SL-12 R/B(2)","OBJECT_ID":"1991-064B","EPOCH":"2026-04-05T13:42:51.507936","MEAN_MOTION":0.99886974,"ECCENTRICITY":0.00032739,"INCLINATION":13.3835,"RA_OF_ASC_NODE":340.4605,"ARG_OF_PERICENTER":7.6846,"MEAN_ANOMALY":156.6202,"EPHEMERIS_TYPE":0,"CLASSIFICATION_TYPE":"U","NORAD_CAT_ID":21703,"ELEMENT_SET_NO":999,"REV_AT_EPOCH":11942,"BSTAR":0,"MEAN_MOTION_DOT":-2.86e-6,"MEAN_MOTION_DDOT":0},{"OBJECT_NAME":"SL-12 R/B(2)","OBJECT_ID":"1991-074D","EPOCH":"2026-04-04T23:00:50.523840","MEAN_MOTION":0.99710448,"ECCENTRICITY":0.00017417,"INCLINATION":13.5038,"RA_OF_ASC_NODE":341.8879,"ARG_OF_PERICENTER":261.7453,"MEAN_ANOMALY":286.7438,"EPHEMERIS_TYPE":0,"CLASSIFICATION_TYPE":"U","NORAD_CAT_ID":21762,"ELEMENT_SET_NO":999,"REV_AT_EPOCH":11894,"BSTAR":0,"MEAN_MOTION_DOT":-1.77e-6,"MEAN_MOTION_DDOT":0},{"OBJECT_NAME":"COSMOS 2172","OBJECT_ID":"1991-079A","EPOCH":"2026-04-04T22:58:20.763264","MEAN_MOTION":1.00258171,"ECCENTRICITY":0.00046475,"INCLINATION":13.3065,"RA_OF_ASC_NODE":340.8881,"ARG_OF_PERICENTER":1.7799,"MEAN_ANOMALY":177.7103,"EPHEMERIS_TYPE":0,"CLASSIFICATION_TYPE":"U","NORAD_CAT_ID":21789,"ELEMENT_SET_NO":999,"REV_AT_EPOCH":4662,"BSTAR":0,"MEAN_MOTION_DOT":-1.6e-6,"MEAN_MOTION_DDOT":0},{"OBJECT_NAME":"RADUGA 28","OBJECT_ID":"1991-087A","EPOCH":"2026-04-04T23:51:17.218656","MEAN_MOTION":1.00314136,"ECCENTRICITY":0.0003405,"INCLINATION":13.4192,"RA_OF_ASC_NODE":341.5854,"ARG_OF_PERICENTER":191.4299,"MEAN_ANOMALY":54.6308,"EPHEMERIS_TYPE":0,"CLASSIFICATION_TYPE":"U","NORAD_CAT_ID":21821,"ELEMENT_SET_NO":999,"REV_AT_EPOCH":12558,"BSTAR":0,"MEAN_MOTION_DOT":1.26e-6,"MEAN_MOTION_DDOT":0},{"OBJECT_NAME":"PALAPA B4","OBJECT_ID":"1992-027A","EPOCH":"2026-04-05T13:55:59.513088","MEAN_MOTION":0.99942153,"ECCENTRICITY":0.00034866,"INCLINATION":13.1677,"RA_OF_ASC_NODE":17.8231,"ARG_OF_PERICENTER":347.1071,"MEAN_ANOMALY":160.5624,"EPHEMERIS_TYPE":0,"CLASSIFICATION_TYPE":"U","NORAD_CAT_ID":21964,"ELEMENT_SET_NO":999,"REV_AT_EPOCH":4646,"BSTAR":0,"MEAN_MOTION_DOT":-3.62e-6,"MEAN_MOTION_DDOT":0},{"OBJECT_NAME":"INSAT-2A","OBJECT_ID":"1992-041A","EPOCH":"2026-04-05T11:37:38.685792","MEAN_MOTION":1.00228035,"ECCENTRICITY":0.00100653,"INCLINATION":14.5089,"RA_OF_ASC_NODE":352.3965,"ARG_OF_PERICENTER":290.7718,"MEAN_ANOMALY":259.6815,"EPHEMERIS_TYPE":0,"CLASSIFICATION_TYPE":"U","NORAD_CAT_ID":22027,"ELEMENT_SET_NO":999,"REV_AT_EPOCH":12332,"BSTAR":0,"MEAN_MOTION_DOT":-2.0e-7,"MEAN_MOTION_DDOT":0},{"OBJECT_NAME":"COSMOS 2209","OBJECT_ID":"1992-059A","EPOCH":"2026-04-04T00:38:04.346880","MEAN_MOTION":1.00230516,"ECCENTRICITY":0.00146036,"INCLINATION":13.6372,"RA_OF_ASC_NODE":343.184,"ARG_OF_PERICENTER":326.8909,"MEAN_ANOMALY":215.567,"EPHEMERIS_TYPE":0,"CLASSIFICATION_TYPE":"U","NORAD_CAT_ID":22112,"ELEMENT_SET_NO":999,"REV_AT_EPOCH":12287,"BSTAR":0,"MEAN_MOTION_DOT":-2.7e-6,"MEAN_MOTION_DDOT":0},{"OBJECT_NAME":"SL-12 R/B(2)","OBJECT_ID":"1992-059D","EPOCH":"2026-04-05T07:52:53.781600","MEAN_MOTION":0.99791721,"ECCENTRICITY":0.00127014,"INCLINATION":13.8678,"RA_OF_ASC_NODE":344.0109,"ARG_OF_PERICENTER":331.8852,"MEAN_ANOMALY":283.66,"EPHEMERIS_TYPE":0,"CLASSIFICATION_TYPE":"U","NORAD_CAT_ID":22115,"ELEMENT_SET_NO":999,"REV_AT_EPOCH":12155,"BSTAR":0,"MEAN_MOTION_DOT":-2.29e-6,"MEAN_MOTION_DDOT":0},{"OBJECT_NAME":"HELLAS-SAT 1 (DFS 3)","OBJECT_ID":"1992-066A","EPOCH":"2026-04-04T12:45:22.953888","MEAN_MOTION":0.99734154,"ECCENTRICITY":3.441e-5,"INCLINATION":14.2055,"RA_OF_ASC_NODE":7.6109,"ARG_OF_PERICENTER":298.8524,"MEAN_ANOMALY":209.4024,"EPHEMERIS_TYPE":0,"CLASSIFICATION_TYPE":"U","NORAD_CAT_ID":22175,"ELEMENT_SET_NO":999,"REV_AT_EPOCH":11981,"BSTAR":0,"MEAN_MOTION_DOT":-3.57e-6,"MEAN_MOTION_DDOT":0}]
