RADUGA-1 2              
1 21038U 90116A   26095.63428607 -.00000256  00000+0  00000+0 0  9991
2 21038  12.9422 338.4427 0003629 132.9130  43.4336  1.00230427 46615
ITALSAT 1               
1 21055U 91003A   26095.09133889 -.00000288  00000+0  00000+0 0  9996
2 21055  14.5678 352.0599 0014135  46.6144 127.2557  0.99963965116359
COSMOS 2133             
1 21111U 91010A   26095.60332179 -.00000160  00000+0  00000+0 0  9996
2 21111  13.2933 343.2728 0002881 216.6793 291.7096  1.00272950128710
SL-12 R/B(2)            
1 21129U 91010F   26095.37753113  .00000103  00000+0  00000+0 0  9990
2 21129  13.2030 342.8769 0016846 233.0289 316.6220  1.00128225128942
RADUGA 27               
1 21132U 91014A   26095.56323111 -.00000200  00000+0  00000+0 0  9999
2 21132  13.4086 337.4061 0001696 335.9994 165.6590  1.00377736128581
TDRS 5                  
1 21639U 91054B   26095.43447367  .00000086  00000+0  00000+0 0  9992
2 21639  14.0808 354.3167 0008517 279.2819 269.0253  1.00279773126981
IUS R/B(2)              
1 21641U 91054D   26095.09003888 -.00000296  00000+0  00000+0 0  9997
2 21641  13.8309 333.5512 0036816 345.7401 200.3752  1.00368776 46636
COSMOS 2155             
1 21702U 91064A   26095.30808906  .00000101  00000+0  00000+0 0  9998
2 21702  13.1811 339.8004 0002506 267.6692 271.6221  1.00179960126606
SL-12 R/B(2)            
1 21703U 91064B   26095.57142949 -.00000286  00000+0  00000+0 0  9991
2 21703  13.3835 340.4605 0003273   7.6846 156.6202  0.99886974119425
SL-12 R/B(2)            
1 21762U 91074D   26094.95891810 -.00000177  00000+0  00000+0 0  9995
2 21762  13.5038 341.8879 0001741 261.7453 286.7438  0.99710448118944
COSMOS 2172             
1 21789U 91079A   26094.95718476 -.00000160  00000+0  00000+0 0  9997
2 21789  13.3065 340.8881 0004647   1.7799 177.7103  1.00258171 46622
RADUGA 28               
1 21821U 91087A   26094.99394929  .00000126  00000+0  00000+0 0  9991
2 21821  13.4192 341.5854 0003405 191.4299  54.6308  1.00314136125589
PALAPA B4               
1 21964U 92027A   26095.58054992 -.00000362  00000+0  00000+0 0  9996
2 21964  13.1677  17.8231 0003486 347.1071 160.5624  0.99942153 46461
INSAT-2A                
1 22027U 92041A   26095.48447553 -.00000020  00000+0  00000+0 0  9992
2 22027  14.5089 352.3965 0010065 290.7718 259.6815  1.00228035123329
COSMOS 2209             
1 22112U 92059A   26094.02643920 -.00000270  00000+0  00000+0 0  9998
2 22112  13.6372 343.1840 0014603 326.8909 215.5670  1.00230516122870
SL-12 R/B(2)            
1 22115U 92059D   26095.32840025 -.00000229  00000+0  00000+0 0  9994
2 22115  13.8678 344.0109 0012701 331.8852 283.6600  0.99791721121552
HELLAS-SAT 1 (DFS 3)    
1 22175U 92066A   26094.53151567 -.00000357  00000+0  00000+0 0  9998
2 22175  14.2055   7.6109 0000344 298.8524 209.4024  0.99734154119811
